[{"OBJECT_NAME":"STARLINK-32440","OBJECT_ID":"2024-196H","EPOCH":"2026-03-09T22:25:10.464960","MEAN_MOTION":15.30184821,"ECCENTRICITY":0.00011039,"INCLINATION":53.1607,"RA_OF_ASC_NODE":100.2285,"ARG_OF_PERICENTER":107.4403,"MEAN_ANOMALY":252.6719,"EPHEMERIS_TYPE":0,"CLASSIFICATION_TYPE":"U","NORAD_CAT_ID":61714,"ELEMENT_SET_NO":999,"REV_AT_EPOCH":7719,"BSTAR":5.5488722e-5,"MEAN_MOTION_DOT":1.284e-5,"MEAN_MOTION_DDOT":0},{"OBJECT_NAME":"USA 40 R\/B DEB","OBJECT_ID":"1989-061BF","EPOCH":"2026-03-09T11:01:29.535168","MEAN_MOTION":9.58078532,"ECCENTRICITY":0.26908089,"INCLINATION":57,"RA_OF_ASC_NODE":145.4523,"ARG_OF_PERICENTER":62.5186,"MEAN_ANOMALY":322.3123,"EPHEMERIS_TYPE":0,"CLASSIFICATION_TYPE":"U","NORAD_CAT_ID":23383,"ELEMENT_SET_NO":999,"REV_AT_EPOCH":23463,"BSTAR":0.0027511821,"MEAN_MOTION_DOT":6.281e-5,"MEAN_MOTION_DDOT":0}]
